KUIPER-00285            
1 68589U 26072S   26099.50362713  .00020440  00000+0  56126-3 0  9998
2 68589  51.8728 149.0916 0006527 123.1301 237.0313 15.37198204   818
